FLOCK 4G-24             
1 62637U 25009AE  26068.72509072  .00010513  00000+0  38996-3 0  9991
2 62637  97.4061 151.5140 0001802 280.2808  79.8228 15.27784978 63732
STARLINK-36102          
1 66849U 25281B   26068.66670139  .00042511  00000+0  15469-2 0  9990
2 66849  43.0042 343.8058 0001702 272.8951 305.2793 15.27548752  5777
